NUSAT-49 (KLARA DAN VO*)
1 60500U 24149AJ  26068.79810190  .00012912  00000+0  43568-3 0  9991
2 60500  97.3807 150.7380 0001132 286.7761  73.3356 15.30828857 86935
STARLINK-32292          
1 61889U 24204R   26068.53812908 -.00000873  00000+0 -17371-4 0  9994
2 61889  53.1601 127.8321 0001045 122.8246 237.2855 15.30187281 75076
